{"type": "FeatureCollection", "features": [ {"type": "Feature", "properties": {"norad_id": 34058, "name": "COSMOS 2251 DEB", "group": "cosmos-2251-debris", "lat": 62.12693219809301, "lon": -135.90406324756347, "alt_km": 1179.8729225752977, "timestamp": "2025-12-04T17:48:40.558500+00:00", "meta": {"OBJECT_NAME": "COSMOS 2251 DEB", "OBJECT_ID": "1993-036JV", "EPOCH": "2025-12-04T07:25:45.156288", "MEAN_MOTION": 13.5605892, "ECCENTRICITY": 0.03782949, "INCLINATION": 73.9322, "RA_OF_ASC_NODE": 191.7768, "ARG_OF_PERICENTER": 188.6195, "MEAN_ANOMALY": 291.0962, "EPHEMERIS_TYPE": 0, "CLASSIFICATION_TYPE": "U", "NORAD_CAT_ID": 34058, "ELEMENT_SET_NO": 999, "REV_AT_EPOCH": 83028, "BSTAR": 0.00086143865, "MEAN_MOTION_DOT": 9.35e-06, "MEAN_MOTION_DDOT": 0}, "tle": {"line1": "1 34058U 93036JV  25338.30955042  .00000935  00000+0  86144-3 0  9992", "line2": "2 34058  73.9322 191.7768 0378294 188.6195 291.0962 13.56058920830287"}}, "geometry": {"type": "Point", "coordinates": [-135.90406324756347, 62.12693219809301]}}, {"type": "Feature", "properties": {"norad_id": 34059, "name": "COSMOS 2251 DEB", "group": "cosmos-2251-debris", "lat": 24.76742163865353, "lon": -151.04905549181, "alt_km": 719.0153639752998, "timestamp": "2025-12-04T17:48:40.558510+00:00", "meta": {"OBJECT_NAME": "COSMOS 2251 DEB", "OBJECT_ID": "1993-036JW", "EPOCH": "2025-12-04T01:51:40.921344", "MEAN_MOTION": 14.52867487, "ECCENTRICITY": 0.00188094, "INCLINATION": 74.0383, "RA_OF_ASC_NODE": 202.6159, "ARG_OF_PERICENTER": 280.7537, "MEAN_ANOMALY": 230.4201, "EPHEMERIS_TYPE": 0, "CLASSIFICATION_TYPE": "U", "NORAD_CAT_ID": 34059, "ELEMENT_SET_NO": 999, "REV_AT_EPOCH": 88333, "BSTAR": 0.0014619212, "MEAN_MOTION_DOT": 6.007e-05, "MEAN_MOTION_DDOT": 0}, "tle": {"line1": "1 34059U 93036JW  25338.07755696  .00006007  00000+0  14619-2 0  9993", "line2": "2 34059  74.0383 202.6159 0018809 280.7537 230.4201 14.52867487883330"}}, "geometry": {"type": "Point", "coordinates": [-151.04905549181, 24.76742163865353]}}, {"type": "Feature", "properties": {"norad_id": 34061, "name": "COSMOS 2251 DEB", "group": "cosmos-2251-debris", "lat": 13.634353299178986, "lon": -77.84745871591544, "alt_km": 744.3893373826959, "timestamp": "2025-12-04T17:48:40.558521+00:00", "meta": {"OBJECT_NAME": "COSMOS 2251 DEB", "OBJECT_ID": "1993-036JY", "EPOCH": "2025-12-04T06:46:08.896224", "MEAN_MOTION": 14.40327442, "ECCENTRICITY": 0.00201704, "INCLINATION": 74.0391, "RA_OF_ASC_NODE": 279.022, "ARG_OF_PERICENTER": 357.388, "MEAN_ANOMALY": 152.1631, "EPHEMERIS_TYPE": 0, "CLASSIFICATION_TYPE": "U", "NORAD_CAT_ID": 34061, "ELEMENT_SET_NO": 999, "REV_AT_EPOCH": 88058, "BSTAR": 0.00072156679, "MEAN_MOTION_DOT": 2.267e-05, "MEAN_MOTION_DDOT": 0}, "tle": {"line1": "1 34061U 93036JY  25338.28204741  .00002267  00000+0  72157-3 0  9995", "line2": "2 34061  74.0391 279.0220 0020170 357.3880 152.1631 14.40327442880585"}}, "geometry": {"type": "Point", "coordinates": [-77.84745871591544, 13.634353299178986]}}, {"type": "Feature", "properties": {"norad_id": 34062, "name": "COSMOS 2251 DEB", "group": "cosmos-2251-debris", "lat": 57.4133456266739, "lon": -52.86392715352314, "alt_km": 651.9843449781602, "timestamp": "2025-12-04T17:48:40.558532+00:00", "meta": {"OBJECT_NAME": "COSMOS 2251 DEB", "OBJECT_ID": "1993-036JZ", "EPOCH": "2025-12-03T22:20:10.307040", "MEAN_MOTION": 14.78100103, "ECCENTRICITY": 0.00762, "INCLINATION": 74.0267, "RA_OF_ASC_NODE": 155.3528, "ARG_OF_PERICENTER": 236.1012, "MEAN_ANOMALY": 247.2142, "EPHEMERIS_TYPE": 0, "CLASSIFICATION_TYPE": "U", "NORAD_CAT_ID": 34062, "ELEMENT_SET_NO": 999, "REV_AT_EPOCH": 88465, "BSTAR": 0.0051158, "MEAN_MOTION_DOT": 0.00039025, "MEAN_MOTION_DDOT": 0}, "tle": {"line1": "1 34062U 93036JZ  25337.93067485  .00039025  00000+0  51158-2 0  9998", "line2": "2 34062  74.0267 155.3528 0076200 236.1012 247.2142 14.78100103884650"}}, "geometry": {"type": "Point", "coordinates": [-52.86392715352314, 57.4133456266739]}}, {"type": "Feature", "properties": {"norad_id": 34064, "name": "COSMOS 2251 DEB", "group": "cosmos-2251-debris", "lat": -63.97660221073798, "lon": -110.19908545119051, "alt_km": 750.5510169260224, "timestamp": "2025-12-04T17:48:40.558542+00:00", "meta": {"OBJECT_NAME": "COSMOS 2251 DEB", "OBJECT_ID": "1993-036KB", "EPOCH": "2025-12-03T07:52:30.877824", "MEAN_MOTION": 14.42279449, "ECCENTRICITY": 0.0021788, "INCLINATION": 74.0325, "RA_OF_ASC_NODE": 288.3269, "ARG_OF_PERICENTER": 356.1066, "MEAN_ANOMALY": 156.1404, "EPHEMERIS_TYPE": 0, "CLASSIFICATION_TYPE": "U", "NORAD_CAT_ID": 34064, "ELEMENT_SET_NO": 999, "REV_AT_EPOCH": 88006, "BSTAR": 0.00084902, "MEAN_MOTION_DOT": 2.784e-05, "MEAN_MOTION_DDOT": 0}, "tle": {"line1": "1 34064U 93036KB  25337.32813516  .00002784  00000+0  84902-3 0  9993", "line2": "2 34064  74.0325 288.3269 0021788 356.1066 156.1404 14.42279449880060"}}, "geometry": {"type": "Point", "coordinates": [-110.19908545119051, -63.97660221073798]}}, {"type": "Feature", "properties": {"norad_id": 34065, "name": "COSMOS 2251 DEB", "group": "cosmos-2251-debris", "lat": 62.22375832921607, "lon": -54.22720737302125, "alt_km": 751.9483941586814, "timestamp": "2025-12-04T17:48:40.558552+00:00", "meta": {"OBJECT_NAME": "COSMOS 2251 DEB", "OBJECT_ID": "1993-036KC", "EPOCH": "2025-12-04T06:21:22.171680", "MEAN_MOTION": 14.38048001, "ECCENTRICITY": 0.00159694, "INCLINATION": 74.0356, "RA_OF_ASC_NODE": 273.7305, "ARG_OF_PERICENTER": 13.209, "MEAN_ANOMALY": 103.6998, "EPHEMERIS_TYPE": 0, "CLASSIFICATION_TYPE": "U", "NORAD_CAT_ID": 34065, "ELEMENT_SET_NO": 999, "REV_AT_EPOCH": 88083, "BSTAR": 0.00034131516, "MEAN_MOTION_DOT": 1.009e-05, "MEAN_MOTION_DDOT": 0}, "tle": {"line1": "1 34065U 93036KC  25338.26483995  .00001009  00000+0  34132-3 0  9991", "line2": "2 34065  74.0356 273.7305 0015969  13.2090 103.6998 14.38048001880839"}}, "geometry": {"type": "Point", "coordinates": [-54.22720737302125, 62.22375832921607]}}, {"type": "Feature", "properties": {"norad_id": 34070, "name": "COSMOS 2251 DEB", "group": "cosmos-2251-debris", "lat": -72.79345869296762, "lon": 64.06258716861988, "alt_km": 635.5080452067732, "timestamp": "2025-12-04T17:48:40.558562+00:00", "meta": {"OBJECT_NAME": "COSMOS 2251 DEB", "OBJECT_ID": "1993-036KH", "EPOCH": "2025-12-04T04:21:14.014080", "MEAN_MOTION": 14.76522442, "ECCENTRICITY": 0.00191882, "INCLINATION": 73.9996, "RA_OF_ASC_NODE": 133.0733, "ARG_OF_PERICENTER": 247.2404, "MEAN_ANOMALY": 289.7274, "EPHEMERIS_TYPE": 0, "CLASSIFICATION_TYPE": "U", "NORAD_CAT_ID": 34070, "ELEMENT_SET_NO": 999, "REV_AT_EPOCH": 88484, "BSTAR": 0.0058264901, "MEAN_MOTION_DOT": 0.00040953, "MEAN_MOTION_DDOT": 0}, "tle": {"line1": "1 34070U 93036KH  25338.18141220  .00040953  00000+0  58265-2 0  9993", "line2": "2 34070  73.9996 133.0733 0019188 247.2404 289.7274 14.76522442884847"}}, "geometry": {"type": "Point", "coordinates": [64.06258716861988, -72.79345869296762]}}, {"type": "Feature", "properties": {"norad_id": 34114, "name": "COSMOS 2251 DEB", "group": "cosmos-2251-debris", "lat": -5.9224477037602385, "lon": 57.28388460166462, "alt_km": 693.474144352801, "timestamp": "2025-12-04T17:48:40.558572+00:00", "meta": {"OBJECT_NAME": "COSMOS 2251 DEB", "OBJECT_ID": "1993-036KK", "EPOCH": "2025-12-04T06:37:32.295072", "MEAN_MOTION": 14.56186134, "ECCENTRICITY": 0.00473367, "INCLINATION": 74.0608, "RA_OF_ASC_NODE": 59.865, "ARG_OF_PERICENTER": 57.9549, "MEAN_ANOMALY": 14.2167, "EPHEMERIS_TYPE": 0, "CLASSIFICATION_TYPE": "U", "NORAD_CAT_ID": 34114, "ELEMENT_SET_NO": 999, "REV_AT_EPOCH": 87678, "BSTAR": 0.0047658175, "MEAN_MOTION_DOT": 0.00021416, "MEAN_MOTION_DDOT": 0}, "tle": {"line1": "1 34114U 93036KK  25338.27606823  .00021416  00000+0  47658-2 0  9994", "line2": "2 34114  74.0608  59.8650 0047336  57.9549  14.2167 14.56186134876781"}}, "geometry": {"type": "Point", "coordinates": [57.28388460166462, -5.9224477037602385]}}, {"type": "Feature", "properties": {"norad_id": 34115, "name": "COSMOS 2251 DEB", "group": "cosmos-2251-debris", "lat": 16.076306836481702, "lon": 72.96656014388698, "alt_km": 628.2431291374123, "timestamp": "2025-12-04T17:48:40.558583+00:00", "meta": {"OBJECT_NAME": "COSMOS 2251 DEB", "OBJECT_ID": "1993-036KL", "EPOCH": "2025-12-04T04:05:39.870240", "MEAN_MOTION": 14.79269175, "ECCENTRICITY": 0.00282589, "INCLINATION": 74.0077, "RA_OF_ASC_NODE": 258.8334, "ARG_OF_PERICENTER": 84.9445, "MEAN_ANOMALY": 275.4955, "EPHEMERIS_TYPE": 0, "CLASSIFICATION_TYPE": "U", "NORAD_CAT_ID": 34115, "ELEMENT_SET_NO": 999, "REV_AT_EPOCH": 89285, "BSTAR": 0.0024436174, "MEAN_MOTION_DOT": 0.00018309, "MEAN_MOTION_DDOT": 0}, "tle": {"line1": "1 34115U 93036KL  25338.17060035  .00018309  00000+0  24436-2 0  9999", "line2": "2 34115  74.0077 258.8334 0028258  84.9445 275.4955 14.79269175892853"}}, "geometry": {"type": "Point", "coordinates": [72.96656014388698, 16.076306836481702]}}, {"type": "Feature", "properties": {"norad_id": 34116, "name": "COSMOS 2251 DEB", "group": "cosmos-2251-debris", "lat": 12.468451513617904, "lon": 14.233030343639689, "alt_km": 719.5693660552743, "timestamp": "2025-12-04T17:48:40.558593+00:00", "meta": {"OBJECT_NAME": "COSMOS 2251 DEB", "OBJECT_ID": "1993-036KM", "EPOCH": "2025-12-04T01:12:20.672928", "MEAN_MOTION": 14.52898279, "ECCENTRICITY": 0.00122643, "INCLINATION": 74.0407, "RA_OF_ASC_NODE": 199.1653, "ARG_OF_PERICENTER": 275.332, "MEAN_ANOMALY": 234.2622, "EPHEMERIS_TYPE": 0, "CLASSIFICATION_TYPE": "U", "NORAD_CAT_ID": 34116, "ELEMENT_SET_NO": 999, "REV_AT_EPOCH": 88360, "BSTAR": 0.0014603638, "MEAN_MOTION_DOT": 5.996e-05, "MEAN_MOTION_DDOT": 0}, "tle": {"line1": "1 34116U 93036KM  25338.05023927  .00005996  00000+0  14604-2 0  9990", "line2": "2 34116  74.0407 199.1653 0012264 275.3320 234.2622 14.52898279883601"}}, "geometry": {"type": "Point", "coordinates": [14.233030343639689, 12.468451513617904]}}]}